{"type":"FeatureCollection","features":[{"type":"Feature","properties":{"name:pl":"Swarzędz tabliczka"},"geometry":{"coordinates":[17.060687431790996,52.39306377349345],"type":"Point"},"id":0},{"type":"Feature","properties":{"name:pl":"Garby 2"},"geometry":{"coordinates":[17.075219,52.36038],"type":"Point"},"id":1},{"type":"Feature","properties":{"name:pl":"Kruszewnia"},"geometry":{"coordinates":[17.1030564,52.3780187],"type":"Point"},"id":2},{"type":"Feature","properties":{"name:pl":"Garby 1"},"geometry":{"coordinates":[17.0715768,52.3796632],"type":"Point"}},{"type":"Feature","properties":{"name:pl":"Zalasewo 1"},"geometry":{"coordinates":[17.0716664,52.3801558],"type":"Point"},"id":4},{"type":"Feature","properties":{"name:pl":"Swarzędz"},"geometry":{"coordinates":[17.077222,52.3957007],"type":"Point"},"id":5},{"type":"Feature","properties":{"name:pl":"Rabowice"},"geometry":{"coordinates":[17.1188627,52.3909256],"type":"Point"}},{"type":"Feature","properties":{"name:pl":"Łowęcin"},"geometry":{"coordinates":[17.1098568,52.4113608],"type":"Point"},"id":7},{"type":"Feature","properties":{"name:pl":"Jasin"},"geometry":{"coordinates":[17.1101882,52.4115437],"type":"Point"}},{"type":"Feature","properties":{"name:pl":"Jasin 2"},"geometry":{"coordinates":[17.0919199,52.4090298],"type":"Point"}},{"type":"Feature","properties":{"name:pl":"Sarbinowo"},"geometry":{"coordinates":[17.1488409,52.4218961],"type":"Point"}},{"type":"Feature","properties":{"name:pl":"Paczkowo"},"geometry":{"coordinates":[17.1566217,52.4078677],"type":"Point"}},{"type":"Feature","properties":{"name:pl":"Sokolniki Gwiazdowskie"},"geometry":{"coordinates":[17.166755804917248,52.40874634788569],"type":"Point"},"id":12},{"type":"Feature","properties":{"name:pl":"Puszczykowo-Zaborze"},"geometry":{"coordinates":[17.1886704,52.4303961],"type":"Point"}},{"type":"Feature","properties":{"name:pl":"Jasin 2"},"geometry":{"coordinates":[17.0930068,52.4190638],"type":"Point"},"id":14},{"type":"Feature","properties":{"name:pl":"Gortatowo"},"geometry":{"coordinates":[17.0996565,52.4230788],"type":"Point"}},{"type":"Feature","properties":{"name:pl":"Jasin 3"},"geometry":{"coordinates":[17.0998067,52.4231701],"type":"Point"},"id":16},{"type":"Feature","properties":{"name:pl":"Katarzynki"},"geometry":{"coordinates":[17.104563797819054,52.44328249775646],"type":"Point"},"id":17},{"type":"Feature","properties":{"name:pl":"Uzarzewo"},"geometry":{"coordinates":[17.119899305800942,52.456054281754945],"type":"Point"},"id":18},{"type":"Feature","properties":{"name:pl":"Gortatowo"},"geometry":{"coordinates":[17.0783926,52.4268196],"type":"Point"}},{"type":"Feature","properties":{"name:pl":"Kobylnica"},"geometry":{"coordinates":[17.0754376,52.4419188],"type":"Point"},"id":20},{"type":"Feature","properties":{"name:pl":"Bogucin*"},"geometry":{"coordinates":[17.018964370465937,52.43214599799629],"type":"Point"},"id":21},{"type":"Feature","properties":{"name:pl":"Janikowo"},"geometry":{"coordinates":[17.0306215,52.4455284],"type":"Point"}},{"type":"Feature","properties":{"name:pl":"Mechowo?"},"geometry":{"coordinates":[17.057451085528896,52.441471040395015],"type":"Point"},"id":23},{"type":"Feature","properties":{"name:pl":"Wierzenica?"},"geometry":{"coordinates":[17.0669327920252,52.46153511723955],"type":"Point"},"id":24},{"type":"Feature","properties":{"name:pl":"Wierzonka?"},"geometry":{"coordinates":[17.08108672643351,52.47157272001303],"type":"Point"},"id":25},{"type":"Feature","properties":{"name:pl":"Wierzonka"},"geometry":{"coordinates":[17.0920169,52.4887142],"type":"Point"},"id":26},{"type":"Feature","properties":{"name:pl":"Karłowice"},"geometry":{"coordinates":[17.0979313,52.4922373],"type":"Point"},"id":27}]}
